{"fetched_at":"2026-07-10T07:58:43.188Z","source":"https://celestrak.org/NORAD/elements/gp.php?GROUP=planet&FORMAT=JSON","constellation":"superdove","records":[{"OBJECT_NAME":"FLOCK 4G-25","OBJECT_ID":"2025-009AP","EPOCH":"2026-07-09T00:56:35.246112","CLASSIFICATION_TYPE":"U","MEAN_MOTION":15.29922439,"ECCENTRICITY":0.00018667,"INCLINATION":97.4011,"RA_OF_ASC_NODE":272.0264,"ARG_OF_PERICENTER":177.9325,"MEAN_ANOMALY":182.1923,"EPHEMERIS_TYPE":0,"NORAD_CAT_ID":62646,"ELEMENT_SET_NO":999,"REV_AT_EPOCH":8226,"BSTAR":0.00026254429,"MEAN_MOTION_DOT":0.00007531,"MEAN_MOTION_DDOT":0},{"OBJECT_NAME":"FLOCK 4G-23","OBJECT_ID":"2025-009AQ","EPOCH":"2026-07-09T03:56:09.989664","CLASSIFICATION_TYPE":"U","MEAN_MOTION":15.34427723,"ECCENTRICITY":0.0002733,"INCLINATION":97.391,"RA_OF_ASC_NODE":271.8412,"ARG_OF_PERICENTER":180.5045,"MEAN_ANOMALY":179.6195,"EPHEMERIS_TYPE":0,"NORAD_CAT_ID":62647,"ELEMENT_SET_NO":999,"REV_AT_EPOCH":8229,"BSTAR":0.00087567,"MEAN_MOTION_DOT":0.00029198,"MEAN_MOTION_DDOT":0},{"OBJECT_NAME":"FLOCK 4G-34","OBJECT_ID":"2025-009AT","EPOCH":"2026-07-09T04:09:58.984704","CLASSIFICATION_TYPE":"U","MEAN_MOTION":15.29695423,"ECCENTRICITY":0.00018081,"INCLINATION":97.3959,"RA_OF_ASC_NODE":271.6532,"ARG_OF_PERICENTER":177.5746,"MEAN_ANOMALY":182.5504,"EPHEMERIS_TYPE":0,"NORAD_CAT_ID":62650,"ELEMENT_SET_NO":999,"REV_AT_EPOCH":8227,"BSTAR":0.00025436099,"MEAN_MOTION_DOT":0.00007242,"MEAN_MOTION_DDOT":0},{"OBJECT_NAME":"FLOCK 4G-21","OBJECT_ID":"2025-009AU","EPOCH":"2026-07-09T04:04:26.201280","CLASSIFICATION_TYPE":"U","MEAN_MOTION":15.32579951,"ECCENTRICITY":0.00025158,"INCLINATION":97.3988,"RA_OF_ASC_NODE":272.6227,"ARG_OF_PERICENTER":209.7301,"MEAN_ANOMALY":150.3798,"EPHEMERIS_TYPE":0,"NORAD_CAT_ID":62651,"ELEMENT_SET_NO":999,"REV_AT_EPOCH":8232,"BSTAR":0.00090886367,"MEAN_MOTION_DOT":0.00028591,"MEAN_MOTION_DDOT":0},{"OBJECT_NAME":"FLOCK 4G-31","OBJECT_ID":"2025-009AV","EPOCH":"2026-07-09T04:51:56.259936","CLASSIFICATION_TYPE":"U","MEAN_MOTION":15.29501919,"ECCENTRICITY":0.00013713,"INCLINATION":97.3965,"RA_OF_ASC_NODE":271.6552,"ARG_OF_PERICENTER":168.618,"MEAN_ANOMALY":191.5091,"EPHEMERIS_TYPE":0,"NORAD_CAT_ID":62652,"ELEMENT_SET_NO":999,"REV_AT_EPOCH":8227,"BSTAR":0.00024811796,"MEAN_MOTION_DOT":0.0000702,"MEAN_MOTION_DDOT":0},{"OBJECT_NAME":"FLOCK 4G-4","OBJECT_ID":"2025-009BC","EPOCH":"2026-07-08T17:27:44.085312","CLASSIFICATION_TYPE":"U","MEAN_MOTION":15.31836485,"ECCENTRICITY":0.00041416,"INCLINATION":97.394,"RA_OF_ASC_NODE":270.9724,"ARG_OF_PERICENTER":211.0185,"MEAN_ANOMALY":149.0813,"EPHEMERIS_TYPE":0,"NORAD_CAT_ID":62659,"ELEMENT_SET_NO":999,"REV_AT_EPOCH":13980,"BSTAR":0.00088224521,"MEAN_MOTION_DOT":0.00027114,"MEAN_MOTION_DDOT":0},{"OBJECT_NAME":"FLOCK 4G-6","OBJECT_ID":"2025-009BD","EPOCH":"2026-07-09T04:38:35.838240","CLASSIFICATION_TYPE":"U","MEAN_MOTION":15.29903824,"ECCENTRICITY":0.00023259,"INCLINATION":97.3938,"RA_OF_ASC_NODE":271.4965,"ARG_OF_PERICENTER":227.2011,"MEAN_ANOMALY":132.9035,"EPHEMERIS_TYPE":0,"NORAD_CAT_ID":62660,"ELEMENT_SET_NO":999,"REV_AT_EPOCH":13986,"BSTAR":0.00024661133,"MEAN_MOTION_DOT":0.00007065,"MEAN_MOTION_DDOT":0},{"OBJECT_NAME":"FLOCK 4G-2","OBJECT_ID":"2025-009BE","EPOCH":"2026-07-09T04:31:20.369280","CLASSIFICATION_TYPE":"U","MEAN_MOTION":15.30246999,"ECCENTRICITY":0.00031813,"INCLINATION":97.4003,"RA_OF_ASC_NODE":272.1248,"ARG_OF_PERICENTER":225.2752,"MEAN_ANOMALY":134.8231,"EPHEMERIS_TYPE":0,"NORAD_CAT_ID":62661,"ELEMENT_SET_NO":999,"REV_AT_EPOCH":13989,"BSTAR":0.00026152711,"MEAN_MOTION_DOT":0.00007578,"MEAN_MOTION_DDOT":0},{"OBJECT_NAME":"FLOCK 4G-5","OBJECT_ID":"2025-009BG","EPOCH":"2026-07-08T19:02:32.543808","CLASSIFICATION_TYPE":"U","MEAN_MOTION":15.30828956,"ECCENTRICITY":0.00028584,"INCLINATION":97.4022,"RA_OF_ASC_NODE":272.1242,"ARG_OF_PERICENTER":203.3773,"MEAN_ANOMALY":156.7339,"EPHEMERIS_TYPE":0,"NORAD_CAT_ID":62663,"ELEMENT_SET_NO":999,"REV_AT_EPOCH":8224,"BSTAR":0.00021113389,"MEAN_MOTION_DOT":0.00006213,"MEAN_MOTION_DDOT":0},{"OBJECT_NAME":"FLOCK 4G-1","OBJECT_ID":"2025-009BK","EPOCH":"2026-07-08T18:43:45.717600","CLASSIFICATION_TYPE":"U","MEAN_MOTION":15.30102714,"ECCENTRICITY":0.0003365,"INCLINATION":97.4018,"RA_OF_ASC_NODE":271.6976,"ARG_OF_PERICENTER":224.3247,"MEAN_ANOMALY":135.7725,"EPHEMERIS_TYPE":0,"NORAD_CAT_ID":62666,"ELEMENT_SET_NO":999,"REV_AT_EPOCH":8221,"BSTAR":0.00027962952,"MEAN_MOTION_DOT":0.00008072,"MEAN_MOTION_DDOT":0},{"OBJECT_NAME":"FLOCK 4G-14","OBJECT_ID":"2025-009BL","EPOCH":"2026-07-09T04:51:00.965664","CLASSIFICATION_TYPE":"U","MEAN_MOTION":15.29655366,"ECCENTRICITY":0.00035317,"INCLINATION":97.4019,"RA_OF_ASC_NODE":271.9184,"ARG_OF_PERICENTER":217.1528,"MEAN_ANOMALY":142.9469,"EPHEMERIS_TYPE":0,"NORAD_CAT_ID":62667,"ELEMENT_SET_NO":999,"REV_AT_EPOCH":8226,"BSTAR":0.00026277128,"MEAN_MOTION_DOT":0.00007476,"MEAN_MOTION_DDOT":0},{"OBJECT_NAME":"FLOCK 4G-10","OBJECT_ID":"2025-009BP","EPOCH":"2026-07-09T00:24:43.400736","CLASSIFICATION_TYPE":"U","MEAN_MOTION":15.29749741,"ECCENTRICITY":0.00031534,"INCLINATION":97.3918,"RA_OF_ASC_NODE":271.0391,"ARG_OF_PERICENTER":239.6424,"MEAN_ANOMALY":120.4505,"EPHEMERIS_TYPE":0,"NORAD_CAT_ID":62670,"ELEMENT_SET_NO":999,"REV_AT_EPOCH":13987,"BSTAR":0.00024160328,"MEAN_MOTION_DOT":0.00006887,"MEAN_MOTION_DDOT":0},{"OBJECT_NAME":"FLOCK 4G-36","OBJECT_ID":"2025-009BU","EPOCH":"2026-07-08T19:34:05.717280","CLASSIFICATION_TYPE":"U","MEAN_MOTION":15.2971948,"ECCENTRICITY":0.00036651,"INCLINATION":97.4007,"RA_OF_ASC_NODE":271.455,"ARG_OF_PERICENTER":225.8436,"MEAN_ANOMALY":134.2503,"EPHEMERIS_TYPE":0,"NORAD_CAT_ID":62675,"ELEMENT_SET_NO":999,"REV_AT_EPOCH":8220,"BSTAR":0.00024138286,"MEAN_MOTION_DOT":0.00006874,"MEAN_MOTION_DDOT":0},{"OBJECT_NAME":"FLOCK 4G-15","OBJECT_ID":"2025-009BX","EPOCH":"2026-07-09T00:27:11.426400","CLASSIFICATION_TYPE":"U","MEAN_MOTION":15.29812693,"ECCENTRICITY":0.0003983,"INCLINATION":97.4011,"RA_OF_ASC_NODE":271.7994,"ARG_OF_PERICENTER":221.1747,"MEAN_ANOMALY":138.9193,"EPHEMERIS_TYPE":0,"NORAD_CAT_ID":62678,"ELEMENT_SET_NO":999,"REV_AT_EPOCH":13988,"BSTAR":0.0002390942,"MEAN_MOTION_DOT":0.00006828,"MEAN_MOTION_DDOT":0},{"OBJECT_NAME":"FLOCK 4G-30","OBJECT_ID":"2025-009BY","EPOCH":"2026-07-09T04:10:17.577984","CLASSIFICATION_TYPE":"U","MEAN_MOTION":15.3363738,"ECCENTRICITY":0.00037447,"INCLINATION":97.3912,"RA_OF_ASC_NODE":271.448,"ARG_OF_PERICENTER":217.2357,"MEAN_ANOMALY":142.8626,"EPHEMERIS_TYPE":0,"NORAD_CAT_ID":62679,"ELEMENT_SET_NO":999,"REV_AT_EPOCH":13991,"BSTAR":0.00095490969,"MEAN_MOTION_DOT":0.00031072,"MEAN_MOTION_DDOT":0},{"OBJECT_NAME":"FLOCK 4G-18","OBJECT_ID":"2025-009BZ","EPOCH":"2026-07-08T18:56:50.060256","CLASSIFICATION_TYPE":"U","MEAN_MOTION":15.31887826,"ECCENTRICITY":0.00055373,"INCLINATION":97.4006,"RA_OF_ASC_NODE":271.4676,"ARG_OF_PERICENTER":232.7407,"MEAN_ANOMALY":127.333,"EPHEMERIS_TYPE":0,"NORAD_CAT_ID":62680,"ELEMENT_SET_NO":999,"REV_AT_EPOCH":13984,"BSTAR":0.00083397603,"MEAN_MOTION_DOT":0.00025667,"MEAN_MOTION_DDOT":0}]}
