FLOCK 4G-25             
1 62646U 25009AP  26190.03929683  .00007531  00000+0  26254-3 0  9995
2 62646  97.4011 272.0264 0001866 177.9325 182.1923 15.29922439 82266
FLOCK 4G-23             
1 62647U 25009AQ  26190.16400451  .00029198  00000+0  87567-3 0  9994
2 62647  97.3910 271.8412 0002733 180.5045 179.6195 15.34427723 82296
FLOCK 4G-34             
1 62650U 25009AT  26190.17359936  .00007242  00000+0  25436-3 0  9993
2 62650  97.3959 271.6532 0001808 177.5746 182.5504 15.29695423 82273
FLOCK 4G-21             
1 62651U 25009AU  26190.16974770  .00028591  00000+0  90886-3 0  9993
2 62651  97.3988 272.6227 0002515 209.7301 150.3798 15.32579951 82324
FLOCK 4G-31             
1 62652U 25009AV  26190.20273449  .00007020  00000+0  24812-3 0  9994
2 62652  97.3965 271.6552 0001371 168.6180 191.5091 15.29501919 82279
FLOCK 4G-4              
1 62659U 25009BC  26189.72759358  .00027114  00000+0  88225-3 0  9998
2 62659  97.3940 270.9724 0004141 211.0185 149.0813 15.31836485139802
FLOCK 4G-6              
1 62660U 25009BD  26190.19347035  .00007065  00000+0  24661-3 0  9995
2 62660  97.3938 271.4965 0002325 227.2011 132.9035 15.29903824139865
FLOCK 4G-2              
1 62661U 25009BE  26190.18843020  .00007578  00000+0  26153-3 0  9997
2 62661  97.4003 272.1248 0003181 225.2752 134.8231 15.30246999139890
FLOCK 4G-5              
1 62663U 25009BG  26189.79343222  .00006213  00000+0  21113-3 0  9999
2 62663  97.4022 272.1242 0002858 203.3773 156.7339 15.30828956 82244
FLOCK 4G-1              
1 62666U 25009BK  26189.78039025  .00008072  00000+0  27963-3 0  9998
2 62666  97.4018 271.6976 0003365 224.3247 135.7725 15.30102714 82213
FLOCK 4G-14             
1 62667U 25009BL  26190.20209451  .00007476  00000+0  26277-3 0  9994
2 62667  97.4019 271.9184 0003531 217.1528 142.9469 15.29655366 82260
FLOCK 4G-10             
1 62670U 25009BP  26190.01716899  .00006887  00000+0  24160-3 0  9990
2 62670  97.3918 271.0391 0003153 239.6424 120.4505 15.29749741139879
FLOCK 4G-36             
1 62675U 25009BU  26189.81534395  .00006874  00000+0  24138-3 0  9991
2 62675  97.4007 271.4550 0003665 225.8436 134.2503 15.29719480 82205
FLOCK 4G-15             
1 62678U 25009BX  26190.01888225  .00006828  00000+0  23909-3 0  9996
2 62678  97.4011 271.7994 0003983 221.1747 138.9193 15.29812693139888
FLOCK 4G-30             
1 62679U 25009BY  26190.17381456  .00031072  00000+0  95491-3 0  9992
2 62679  97.3912 271.4480 0003744 217.2357 142.8626 15.33637380139915
FLOCK 4G-18             
1 62680U 25009BZ  26189.78946829  .00025667  00000+0  83398-3 0  9996
2 62680  97.4006 271.4676 0005537 232.7407 127.3330 15.31887826139841
